<?xml version="1.0" encoding="UTF-8"?>
<seiscomp xmlns="http://geofon.gfz-potsdam.de/ns/seiscomp3-schema/0.7" version="0.7">
  <EventParameters>
    <pick publicID="20120127.040629.79-AIC-NZ.WVZ.10.HHZ">
      <time>
        <value>2012-01-27T04:06:29.798393Z</value>
      </time>
      <waveformID networkCode="NZ" stationCode="WVZ" locationCode="10" channelCode="HHZ"/>
      <methodID>AIC</methodID>
      <phaseHint>P</phaseHint>
      <evaluationMode>automatic</evaluationMode>
      <creationInfo>
        <agencyID>WEL(GNS_Primary)</agencyID>
        <author>scautopick@seiscomp3vm_1</author>
        <creationTime>2013-12-02T03:38:18.51576Z</creationTime>
      </creationInfo>
    </pick>
    <pick publicID="20120127.040637.86-AIC-NZ.INZ.10.HHZ">
      <time>
        <value>2012-01-27T04:06:37.868402Z</value>
      </time>
      <waveformID networkCode="NZ" stationCode="INZ" locationCode="10" channelCode="HHZ"/>
      <methodID>AIC</methodID>
      <phaseHint>P</phaseHint>
      <evaluationMode>automatic</evaluationMode>
      <creationInfo>
        <agencyID>WEL(GNS_Primary)</agencyID>
        <author>scautopick@seiscomp3vm_1</author>
        <creationTime>2013-12-02T03:38:18.985708Z</creationTime>
      </creationInfo>
    </pick>
    <pick publicID="20120127.040638.15-AIC-NZ.RPZ.10.HHZ">
      <time>
        <value>2012-01-27T04:06:38.158869Z</value>
      </time>
      <waveformID networkCode="NZ" stationCode="RPZ" locationCode="10" channelCode="HHZ"/>
      <methodID>AIC</methodID>
      <phaseHint>P</phaseHint>
      <evaluationMode>automatic</evaluationMode>
      <creationInfo>
        <agencyID>WEL(GNS_Primary)</agencyID>
        <author>scautopick@seiscomp3vm_1</author>
        <creationTime>2013-12-02T03:38:18.877508Z</creationTime>
      </creationInfo>
    </pick>
    <pick publicID="20120127.040644.54-AIC-NZ.FOZ.10.HHZ">
      <time>
        <value>2012-01-27T04:06:44.54839Z</value>
      </time>
      <waveformID networkCode="NZ" stationCode="FOZ" locationCode="10" channelCode="HHZ"/>
      <methodID>AIC</methodID>
      <phaseHint>P</phaseHint>
      <evaluationMode>automatic</evaluationMode>
      <creationInfo>
        <agencyID>WEL(GNS_Primary)</agencyID>
        <author>scautopick@seiscomp3vm_1</author>
        <creationTime>2013-12-02T03:38:19.371811Z</creationTime>
      </creationInfo>
    </pick>
    <pick publicID="20120127.040647.80-AIC-NZ.LTZ.10.HHZ">
      <time>
        <value>2012-01-27T04:06:47.806876Z</value>
      </time>
      <waveformID networkCode="NZ" stationCode="LTZ" locationCode="10" channelCode="HHZ"/>
      <methodID>AIC</methodID>
      <phaseHint>P</phaseHint>
      <evaluationMode>automatic</evaluationMode>
      <creationInfo>
        <agencyID>WEL(GNS_Primary)</agencyID>
        <author>scautopick@seiscomp3vm_1</author>
        <creationTime>2013-12-02T03:38:19.365516Z</creationTime>
      </creationInfo>
    </pick>
    <pick publicID="20120127.040651.99-AIC-NZ.LBZ.10.HHZ">
      <time>
        <value>2012-01-27T04:06:51.998393Z</value>
      </time>
      <waveformID networkCode="NZ" stationCode="LBZ" locationCode="10" channelCode="HHZ"/>
      <methodID>AIC</methodID>
      <phaseHint>P</phaseHint>
      <evaluationMode>automatic</evaluationMode>
      <creationInfo>
        <agencyID>WEL(GNS_Primary)</agencyID>
        <author>scautopick@seiscomp3vm_1</author>
        <creationTime>2013-12-02T03:38:19.685612Z</creationTime>
      </creationInfo>
    </pick>
    <pick publicID="20120127.040656.06-AIC-NZ.DSZ.10.HHZ">
      <time>
        <value>2012-01-27T04:06:56.068385Z</value>
      </time>
      <waveformID networkCode="NZ" stationCode="DSZ" locationCode="10" channelCode="HHZ"/>
      <methodID>AIC</methodID>
      <phaseHint>P</phaseHint>
      <evaluationMode>automatic</evaluationMode>
      <creationInfo>
        <agencyID>WEL(GNS_Primary)</agencyID>
        <author>scautopick@seiscomp3vm_1</author>
        <creationTime>2013-12-02T03:38:19.803862Z</creationTime>
      </creationInfo>
    </pick>
    <pick publicID="20120127.040659.57-AIC-NZ.ODZ.10.HHZ">
      <time>
        <value>2012-01-27T04:06:59.578397Z</value>
      </time>
      <waveformID networkCode="NZ" stationCode="ODZ" locationCode="10" channelCode="HHZ"/>
      <methodID>AIC</methodID>
      <phaseHint>P</phaseHint>
      <evaluationMode>automatic</evaluationMode>
      <creationInfo>
        <agencyID>WEL(GNS_Primary)</agencyID>
        <author>scautopick@seiscomp3vm_1</author>
        <creationTime>2013-12-02T03:38:20.074274Z</creationTime>
      </creationInfo>
    </pick>
    <pick publicID="20120127.040659.25-AIC-NZ.JCZ.10.HHZ">
      <time>
        <value>2012-01-27T04:06:59.25839Z</value>
      </time>
      <waveformID networkCode="NZ" stationCode="JCZ" locationCode="10" channelCode="HHZ"/>
      <methodID>AIC</methodID>
      <phaseHint>P</phaseHint>
      <evaluationMode>automatic</evaluationMode>
      <creationInfo>
        <agencyID>WEL(GNS_Primary)</agencyID>
        <author>scautopick@seiscomp3vm_1</author>
        <creationTime>2013-12-02T03:38:20.104403Z</creationTime>
      </creationInfo>
    </pick>
    <pick publicID="20120127.040703.31-AIC-NZ.THZ.10.HHZ">
      <time>
        <value>2012-01-27T04:07:03.312881Z</value>
      </time>
      <waveformID networkCode="NZ" stationCode="THZ" locationCode="10" channelCode="HHZ"/>
      <methodID>AIC</methodID>
      <phaseHint>P</phaseHint>
      <evaluationMode>automatic</evaluationMode>
      <creationInfo>
        <agencyID>WEL(GNS_Primary)</agencyID>
        <author>scautopick@seiscomp3vm_1</author>
        <creationTime>2013-12-02T03:38:20.17537Z</creationTime>
      </creationInfo>
    </pick>
    <amplitude publicID="20120127.040644.54-AIC-NZ.FOZ.10.HHZ.MLv">
      <type>MLv</type>
      <amplitude>
        <value>0.8064117578</value>
      </amplitude>
      <timeWindow>
        <reference>2012-01-27T04:09:04.83839Z</reference>
        <begin>0</begin>
        <end>0</end>
      </timeWindow>
      <snr>2.561924298</snr>
      <pickID>20120127.040644.54-AIC-NZ.FOZ.10.HHZ</pickID>
      <waveformID networkCode="NZ" stationCode="FOZ" locationCode="10" channelCode="HHZ"/>
      <creationInfo>
        <agencyID>WEL(GNS_Primary)</agencyID>
        <author>scautopick@seiscomp3vm_1</author>
        <creationTime>2013-12-02T03:38:26.432741Z</creationTime>
      </creationInfo>
    </amplitude>
    <amplitude publicID="20120127.040637.86-AIC-NZ.INZ.10.HHZ.MLv">
      <type>MLv</type>
      <amplitude>
        <value>0.4543679996</value>
      </amplitude>
      <timeWindow>
        <reference>2012-01-27T04:07:19.368402Z</reference>
        <begin>0</begin>
        <end>0</end>
      </timeWindow>
      <snr>1.81702576</snr>
      <pickID>20120127.040637.86-AIC-NZ.INZ.10.HHZ</pickID>
      <waveformID networkCode="NZ" stationCode="INZ" locationCode="10" channelCode="HHZ"/>
      <creationInfo>
        <agencyID>WEL(GNS_Primary)</agencyID>
        <author>scautopick@seiscomp3vm_1</author>
        <creationTime>2013-12-02T03:38:26.211112Z</creationTime>
      </creationInfo>
    </amplitude>
    <amplitude publicID="20120127.040651.99-AIC-NZ.LBZ.10.HHZ.MLv">
      <type>MLv</type>
      <amplitude>
        <value>0.3850983494</value>
      </amplitude>
      <timeWindow>
        <reference>2012-01-27T04:06:56.118392Z</reference>
        <begin>0</begin>
        <end>0</end>
      </timeWindow>
      <snr>1.671861892</snr>
      <pickID>20120127.040651.99-AIC-NZ.LBZ.10.HHZ</pickID>
      <waveformID networkCode="NZ" stationCode="LBZ" locationCode="10" channelCode="HHZ"/>
      <creationInfo>
        <agencyID>WEL(GNS_Primary)</agencyID>
        <author>scautopick@seiscomp3vm_1</author>
        <creationTime>2013-12-02T03:38:26.969535Z</creationTime>
      </creationInfo>
    </amplitude>
    <amplitude publicID="20120127.040647.80-AIC-NZ.LTZ.10.HHZ.MLv">
      <type>MLv</type>
      <amplitude>
        <value>0.3916861604</value>
      </amplitude>
      <timeWindow>
        <reference>2012-01-27T04:06:47.766877Z</reference>
        <begin>0</begin>
        <end>0</end>
      </timeWindow>
      <snr>1.417314409</snr>
      <pickID>20120127.040647.80-AIC-NZ.LTZ.10.HHZ</pickID>
      <waveformID networkCode="NZ" stationCode="LTZ" locationCode="10" channelCode="HHZ"/>
      <creationInfo>
        <agencyID>WEL(GNS_Primary)</agencyID>
        <author>scautopick@seiscomp3vm_1</author>
        <creationTime>2013-12-02T03:38:26.648672Z</creationTime>
      </creationInfo>
    </amplitude>
    <amplitude publicID="20120127.040659.57-AIC-NZ.ODZ.10.HHZ.MLv">
      <type>MLv</type>
      <amplitude>
        <value>0.3646838187</value>
      </amplitude>
      <timeWindow>
        <reference>2012-01-27T04:09:15.028397Z</reference>
        <begin>0</begin>
        <end>0</end>
      </timeWindow>
      <snr>1.603168526</snr>
      <pickID>20120127.040659.57-AIC-NZ.ODZ.10.HHZ</pickID>
      <waveformID networkCode="NZ" stationCode="ODZ" locationCode="10" channelCode="HHZ"/>
      <creationInfo>
        <agencyID>WEL(GNS_Primary)</agencyID>
        <author>scautopick@seiscomp3vm_1</author>
        <creationTime>2013-12-02T03:38:27.16513Z</creationTime>
      </creationInfo>
    </amplitude>
    <amplitude publicID="20120127.040638.15-AIC-NZ.RPZ.10.HHZ.MLv">
      <type>MLv</type>
      <amplitude>
        <value>0.4254504564</value>
      </amplitude>
      <timeWindow>
        <reference>2012-01-27T04:07:48.27887Z</reference>
        <begin>0</begin>
        <end>0</end>
      </timeWindow>
      <snr>2.071956774</snr>
      <pickID>20120127.040638.15-AIC-NZ.RPZ.10.HHZ</pickID>
      <waveformID networkCode="NZ" stationCode="RPZ" locationCode="10" channelCode="HHZ"/>
      <creationInfo>
        <agencyID>WEL(GNS_Primary)</agencyID>
        <author>scautopick@seiscomp3vm_1</author>
        <creationTime>2013-12-02T03:38:26.217816Z</creationTime>
      </creationInfo>
    </amplitude>
    <amplitude publicID="20120127.040629.79-AIC-NZ.WVZ.10.HHZ.MLv">
      <type>MLv</type>
      <amplitude>
        <value>0.7428069185</value>
      </amplitude>
      <timeWindow>
        <reference>2012-01-27T04:06:29.828393Z</reference>
        <begin>0</begin>
        <end>0</end>
      </timeWindow>
      <snr>3.001890386</snr>
      <pickID>20120127.040629.79-AIC-NZ.WVZ.10.HHZ</pickID>
      <waveformID networkCode="NZ" stationCode="WVZ" locationCode="10" channelCode="HHZ"/>
      <creationInfo>
        <agencyID>WEL(GNS_Primary)</agencyID>
        <author>scautopick@seiscomp3vm_1</author>
        <creationTime>2013-12-02T03:38:25.681438Z</creationTime>
      </creationInfo>
    </amplitude>
    <amplitude publicID="20120127.040656.06-AIC-NZ.DSZ.10.HHZ.MLv">
      <type>MLv</type>
      <amplitude>
        <value>0.9062034315</value>
      </amplitude>
      <timeWindow>
        <reference>2012-01-27T04:06:58.838384Z</reference>
        <begin>0</begin>
        <end>0</end>
      </timeWindow>
      <snr>2.312995816</snr>
      <pickID>20120127.040656.06-AIC-NZ.DSZ.10.HHZ</pickID>
      <waveformID networkCode="NZ" stationCode="DSZ" locationCode="10" channelCode="HHZ"/>
      <creationInfo>
        <agencyID>WEL(GNS_Primary)</agencyID>
        <author>scautopick@seiscomp3vm_1</author>
        <creationTime>2013-12-02T03:38:27.154899Z</creationTime>
      </creationInfo>
    </amplitude>
    <amplitude publicID="20120127.040659.25-AIC-NZ.JCZ.10.HHZ.MLv">
      <type>MLv</type>
      <amplitude>
        <value>0.4034497696</value>
      </amplitude>
      <timeWindow>
        <reference>2012-01-27T04:07:46.74839Z</reference>
        <begin>0</begin>
        <end>0</end>
      </timeWindow>
      <snr>1.414646296</snr>
      <pickID>20120127.040659.25-AIC-NZ.JCZ.10.HHZ</pickID>
      <waveformID networkCode="NZ" stationCode="JCZ" locationCode="10" channelCode="HHZ"/>
      <creationInfo>
        <agencyID>WEL(GNS_Primary)</agencyID>
        <author>scautopick@seiscomp3vm_1</author>
        <creationTime>2013-12-02T03:38:27.225938Z</creationTime>
      </creationInfo>
    </amplitude>
    <amplitude publicID="20120127.040703.31-AIC-NZ.THZ.10.HHZ.MLv">
      <type>MLv</type>
      <amplitude>
        <value>0.4934423038</value>
      </amplitude>
      <timeWindow>
        <reference>2012-01-27T04:09:23.252881Z</reference>
        <begin>0</begin>
        <end>0</end>
      </timeWindow>
      <snr>1.868514952</snr>
      <pickID>20120127.040703.31-AIC-NZ.THZ.10.HHZ</pickID>
      <waveformID networkCode="NZ" stationCode="THZ" locationCode="10" channelCode="HHZ"/>
      <creationInfo>
        <agencyID>WEL(GNS_Primary)</agencyID>
        <author>scautopick@seiscomp3vm_1</author>
        <creationTime>2013-12-02T03:38:27.574538Z</creationTime>
      </creationInfo>
    </amplitude>
    <origin publicID="NLL.20140109110100.055987.14584">
      <time>
        <value>2012-01-27T04:06:25.369465Z</value>
      </time>
      <latitude>
        <value>-43.15704211</value>
        <uncertainty>38.18715061</uncertainty>
      </latitude>
      <longitude>
        <value>170.9096047</value>
        <uncertainty>22.62652012</uncertainty>
      </longitude>
      <depth>
        <value>5.234375</value>
        <uncertainty>36.8303846</uncertainty>
      </depth>
      <methodID>NonLinLoc</methodID>
      <earthModelID>nz3drx</earthModelID>
      <quality>
        <associatedPhaseCount>8</associatedPhaseCount>
        <usedPhaseCount>8</usedPhaseCount>
        <usedStationCount>8</usedStationCount>
        <standardError>0.5944258933</standardError>
        <azimuthalGap>98.73193969</azimuthalGap>
        <secondaryAzimuthalGap>139.821084</secondaryAzimuthalGap>
        <groundTruthLevel>-</groundTruthLevel>
        <maximumDistance>1.893295137</maximumDistance>
        <minimumDistance>0.1515531055</minimumDistance>
        <medianDistance>0.9638177977</medianDistance>
      </quality>
      <uncertainty>
        <horizontalUncertainty>61.4939541</horizontalUncertainty>
        <minHorizontalUncertainty>27.3860319</minHorizontalUncertainty>
        <maxHorizontalUncertainty>61.4939541</maxHorizontalUncertainty>
        <azimuthMaxHorizontalUncertainty>157.9429342</azimuthMaxHorizontalUncertainty>
        <confidenceEllipsoid>
          <semiMajorAxisLength>87.31087743</semiMajorAxisLength>
          <semiMinorAxisLength>26.92649037</semiMinorAxisLength>
          <semiIntermediateAxisLength>58.2667019</semiIntermediateAxisLength>
          <majorAxisPlunge>50.55071807</majorAxisPlunge>
          <majorAxisAzimuth>80.48783797</majorAxisAzimuth>
          <majorAxisRotation>110.0448942</majorAxisRotation>
        </confidenceEllipsoid>
      </uncertainty>
      <evaluationMode>automatic</evaluationMode>
      <creationInfo>
        <agencyID>WEL(GNS_Primary)</agencyID>
        <author>screloc@vm-scz02-av.geonet.org.nz</author>
        <creationTime>2014-01-09T11:01:05.613419Z</creationTime>
      </creationInfo>
      <arrival>
        <pickID>20120127.040629.79-AIC-NZ.WVZ.10.HHZ</pickID>
        <phase>P</phase>
        <timeCorrection>0</timeCorrection>
        <azimuth>302.3194377</azimuth>
        <distance>0.1515531055</distance>
        <timeResidual>-3.801403636e-13</timeResidual>
        <weight>1.532535963</weight>
      </arrival>
      <arrival>
        <pickID>20120127.040637.86-AIC-NZ.INZ.10.HHZ</pickID>
        <phase>P</phase>
        <timeCorrection>0</timeCorrection>
        <azimuth>41.43665796</azimuth>
        <distance>0.5768497827</distance>
        <timeResidual>-0.01164753189</timeResidual>
        <weight>1.421284087</weight>
      </arrival>
      <arrival>
        <pickID>20120127.040638.15-AIC-NZ.RPZ.10.HHZ</pickID>
        <phase>P</phase>
        <timeCorrection>0</timeCorrection>
        <azimuth>168.0470967</azimuth>
        <distance>0.5715402002</distance>
        <timeResidual>-0.02585587692</timeResidual>
        <weight>1.404631441</weight>
      </arrival>
      <arrival>
        <pickID>20120127.040644.54-AIC-NZ.FOZ.10.HHZ</pickID>
        <phase>P</phase>
        <timeCorrection>0</timeCorrection>
        <azimuth>244.3363727</azimuth>
        <distance>0.8697651878</distance>
        <timeResidual>1.3240695</timeResidual>
        <weight>0.749071034</weight>
      </arrival>
      <arrival>
        <pickID>20120127.040647.80-AIC-NZ.LTZ.10.HHZ</pickID>
        <phase>P</phase>
        <timeCorrection>0</timeCorrection>
        <azimuth>69.31515697</azimuth>
        <distance>1.057870408</distance>
        <timeResidual>1.052685162</timeResidual>
        <weight>0.8325343908</weight>
      </arrival>
      <arrival>
        <pickID>20120127.040651.99-AIC-NZ.LBZ.10.HHZ</pickID>
        <phase>P</phase>
        <timeCorrection>0</timeCorrection>
        <azimuth>201.6175587</azimuth>
        <distance>1.322969407</distance>
        <timeResidual>1.278481197</timeResidual>
        <weight>0.7998853121</weight>
      </arrival>
      <arrival>
        <pickID>20120127.040656.06-AIC-NZ.DSZ.10.HHZ</pickID>
        <phase>P</phase>
        <timeCorrection>0</timeCorrection>
        <azimuth>24.15745674</azimuth>
        <distance>1.545405467</distance>
        <timeResidual>2.430794735</timeResidual>
        <weight>0.2036064015</weight>
      </arrival>
      <arrival>
        <pickID>20120127.040659.57-AIC-NZ.ODZ.10.HHZ</pickID>
        <phase>P</phase>
        <timeCorrection>0</timeCorrection>
        <azimuth>184.2096121</azimuth>
        <distance>1.893295137</distance>
        <timeResidual>0.1774585533</timeResidual>
        <weight>1.05645137</weight>
      </arrival>
      <stationMagnitude publicID="NLL.20140109110100.055987.14584#staMag.MLv#NZ.FOZ">
        <magnitude>
          <value>2.906556851</value>
        </magnitude>
        <type>MLv</type>
        <amplitudeID>20120127.040644.54-AIC-NZ.FOZ.10.HHZ.MLv</amplitudeID>
        <waveformID networkCode="NZ" stationCode="FOZ" locationCode="10" channelCode="HHZ"/>
        <creationInfo>
          <agencyID>WEL(GNS_Primary)</agencyID>
          <author>scmag@vm-scz02-av.geonet.org.nz</author>
          <creationTime>2014-01-09T11:01:05.651728Z</creationTime>
        </creationInfo>
      </stationMagnitude>
      <stationMagnitude publicID="NLL.20140109110100.055987.14584#staMag.MLv#NZ.INZ">
        <magnitude>
          <value>2.457407689</value>
        </magnitude>
        <type>MLv</type>
        <amplitudeID>20120127.040637.86-AIC-NZ.INZ.10.HHZ.MLv</amplitudeID>
        <waveformID networkCode="NZ" stationCode="INZ" locationCode="10" channelCode="HHZ"/>
        <creationInfo>
          <agencyID>WEL(GNS_Primary)</agencyID>
          <author>scmag@vm-scz02-av.geonet.org.nz</author>
          <creationTime>2014-01-09T11:01:05.652213Z</creationTime>
        </creationInfo>
      </stationMagnitude>
      <stationMagnitude publicID="NLL.20140109110100.055987.14584#staMag.MLv#NZ.LBZ">
        <magnitude>
          <value>2.856449024</value>
        </magnitude>
        <type>MLv</type>
        <amplitudeID>20120127.040651.99-AIC-NZ.LBZ.10.HHZ.MLv</amplitudeID>
        <waveformID networkCode="NZ" stationCode="LBZ" locationCode="10" channelCode="HHZ"/>
        <creationInfo>
          <agencyID>WEL(GNS_Primary)</agencyID>
          <author>scmag@vm-scz02-av.geonet.org.nz</author>
          <creationTime>2014-01-09T11:01:05.652665Z</creationTime>
        </creationInfo>
      </stationMagnitude>
      <stationMagnitude publicID="NLL.20140109110100.055987.14584#staMag.MLv#NZ.LTZ">
        <magnitude>
          <value>2.692938131</value>
        </magnitude>
        <type>MLv</type>
        <amplitudeID>20120127.040647.80-AIC-NZ.LTZ.10.HHZ.MLv</amplitudeID>
        <waveformID networkCode="NZ" stationCode="LTZ" locationCode="10" channelCode="HHZ"/>
        <creationInfo>
          <agencyID>WEL(GNS_Primary)</agencyID>
          <author>scmag@vm-scz02-av.geonet.org.nz</author>
          <creationTime>2014-01-09T11:01:05.653068Z</creationTime>
        </creationInfo>
